NORAD_CAT_ID,OBJECT_NAME,OBJECT_TYPE,EPOCH,MEAN_MOTION,ECCENTRICITY,INCLINATION,RA_OF_ASC_NODE,ARG_OF_PERICENTER,MEAN_ANOMALY,BSTAR,MEAN_MOTION_DOT,MEAN_MOTION_DDOT,TLE_LINE0,TLE_LINE1,TLE_LINE2,SEMIMAJOR_AXIS,PERIOD,APOGEE,PERIGEE,DECAYED
52648.0,STARLINK-3854,PAYLOAD,2024-06-09 15:06:37,15.08831299,0.0001461,53.2153,243.4849,120.1562,239.9575,-4.6711e-05,-1.031e-05,0.0,0 STARLINK-3854,1 52648U 22052BC  24161.62960613 -.00001031  00000-0 -46711-4 0  9993,2 52648  53.2153 243.4849 0001461 120.1562 239.9575 15.08831299114809,6917.907,95.438,540.783,538.761,0.0
52648.0,STARLINK-3854,PAYLOAD,2024-06-10 05:25:05,15.08842724,0.0001352,53.2153,240.809,112.3817,247.7318,0.00019779,2.862e-05,0.0,0 STARLINK-3854,1 52648U 22052BC  24162.22576240  .00002862  00000-0  19779-3 0  9993,2 52648  53.2153 240.8090 0001352 112.3817 247.7318 15.08842724115272,6917.872,95.437,540.672,538.802,0.0
52648.0,STARLINK-3854,PAYLOAD,2024-06-10 11:46:38,15.08852921,0.0001471,53.2153,239.6211,100.513,259.6027,0.00054952,8.472e-05,0.0,0 STARLINK-3854,1 52648U 22052BC  24162.49072180  .00008472  00000-0  54952-3 0  9991,2 52648  53.2153 239.6211 0001471 100.5130 259.6027 15.08852921114933,6917.841,95.437,540.724,538.688,0.0
52648.0,STARLINK-3854,PAYLOAD,2024-06-10 19:43:33,15.08871488,0.0001309,53.2149,238.1355,95.0481,265.0661,0.0015766,0.00024914,0.0,0 STARLINK-3854,1 52648U 22052BC  24162.82191897  .00024914  00000-0  15766-2 0  9993,2 52648  53.2149 238.1355 0001309  95.0481 265.0661 15.08871488115360,6917.784,95.436,540.555,538.744,0.0
52648.0,STARLINK-3854,PAYLOAD,2024-06-11 05:15:52,15.08850065,0.0001208,53.2167,236.3513,90.192,269.9211,0.00070235,0.00010911,0.0,0 STARLINK-3854,1 52648U 22052BC  24163.21936123  .00010911  00000-0  70235-3 0  9991,2 52648  53.2167 236.3513 0001208  90.1920 269.9211 15.08850065115427,6917.85,95.437,540.55,538.879,0.0
52648.0,STARLINK-3854,PAYLOAD,2024-06-11 11:37:25,15.08855581,0.0001324,53.2159,235.1613,87.3544,272.76,0.00062459,9.671e-05,0.0,0 STARLINK-3854,1 52648U 22052BC  24163.48431968  .00009671  00000-0  62459-3 0  9997,2 52648  53.2159 235.1613 0001324  87.3544 272.7600 15.08855581115089,6917.833,95.437,540.614,538.782,0.0
52648.0,STARLINK-3854,PAYLOAD,2024-06-12 05:06:39,15.08851204,0.0001348,53.215,231.8897,79.4172,280.6971,0.0010212,0.00016007,0.0,0 STARLINK-3854,1 52648U 22052BC  24164.21296220  .00016007  00000-0  10212-2 0  9999,2 52648  53.2150 231.8897 0001348  79.4172 280.6971 15.08851204115573,6917.846,95.437,540.644,538.779,0.0
52648.0,STARLINK-3854,PAYLOAD,2024-06-12 11:28:12,15.08825425,0.0001156,53.215,230.7005,91.7184,268.394,0.0011739,0.00018437,0.0,0 STARLINK-3854,1 52648U 22052BC  24164.47792570  .00018437  00000-0  11739-2 0  9990,2 52648  53.2150 230.7005 0001156  91.7184 268.3940 15.08825425115619,6917.925,95.438,540.59,538.99,0.0
52648.0,STARLINK-3854,PAYLOAD,2024-06-13 03:22:04,15.08838205,0.0001145,53.2154,227.7254,85.5012,274.6111,0.00070076,0.00010882,0.0,0 STARLINK-3854,1 52648U 22052BC  24165.14032930  .00010882  00000-0  70076-3 0  9998,2 52648  53.2154 227.7254 0001145  85.5012 274.6111 15.08838205115715,6917.886,95.438,540.543,538.959,0.0
52648.0,STARLINK-3854,PAYLOAD,2024-06-13 11:18:59,15.08844851,0.0001161,53.2153,226.2397,92.0954,268.0171,0.00036964,5.601e-05,0.0,0 STARLINK-3854,1 52648U 22052BC  24165.47152582  .00005601  00000-0  36964-3 0  9991,2 52648  53.2153 226.2397 0001161  92.0954 268.0171 15.08844851115382,6917.866,95.437,540.534,538.927,0.0
52648.0,STARLINK-3854,PAYLOAD,2024-06-14 12:45:10,15.08835328,0.0001407,53.217,221.4847,93.8489,266.2664,0.00014527,2.025e-05,0.0,0 STARLINK-3854,1 52648U 22052BC  24166.53137068  .00002025  00000-0  14527-3 0  9999,2 52648  53.2170 221.4847 0001407  93.8489 266.2664 15.08835328115547,6917.895,95.438,540.733,538.786,0.0
52648.0,STARLINK-3854,PAYLOAD,2024-06-14 20:42:05,15.08843584,0.0001238,53.2157,219.9958,86.3918,273.7215,0.00016519,2.342e-05,0.0,0 STARLINK-3854,1 52648U 22052BC  24166.86256587  .00002342  00000-0  16519-3 0  9998,2 52648  53.2157 219.9958 0001238  86.3918 273.7215 15.08843584115596,6917.869,95.437,540.591,538.878,0.0
52648.0,STARLINK-3854,PAYLOAD,2024-06-15 12:35:56,15.08848519,0.0001293,53.216,217.0208,80.3712,279.7426,0.00012833,1.756e-05,0.0,0 STARLINK-3854,1 52648U 22052BC  24167.52496314  .00001756  00000-0  12833-3 0  9999,2 52648  53.2160 217.0208 0001293  80.3712 279.7426 15.08848519115698,6917.854,95.437,540.614,538.825,0.0
52648.0,STARLINK-3854,PAYLOAD,2024-06-15 20:32:52,15.08852336,0.0001292,53.2161,215.5343,80.9481,279.1657,0.0001946,2.812e-05,0.0,0 STARLINK-3854,1 52648U 22052BC  24167.85616042  .00002812  00000-0  19460-3 0  9994,2 52648  53.2161 215.5343 0001292  80.9481 279.1657 15.08852336115748,6917.843,95.437,540.601,538.814,0.0
52648.0,STARLINK-3854,PAYLOAD,2024-06-16 10:51:20,15.08844132,0.0001327,53.2157,212.8584,83.0844,277.0299,0.0001166,1.568e-05,0.0,0 STARLINK-3854,1 52648U 22052BC  24168.45232406  .00001568  00000-0  11660-3 0  9990,2 52648  53.2157 212.8584 0001327  83.0844 277.0299 15.08844132115830,6917.868,95.437,540.651,538.815,0.0
52648.0,STARLINK-3854,PAYLOAD,2024-06-16 20:23:39,15.08846446,0.00013,53.2155,211.0735,85.429,274.685,0.00014109,1.959e-05,0.0,0 STARLINK-3854,1 52648U 22052BC  24168.84976189  .00001959  00000-0  14109-3 0  9991,2 52648  53.2155 211.0735 0001300  85.4290 274.6850 15.08846446115891,6917.861,95.437,540.625,538.826,0.0
52648.0,STARLINK-3854,PAYLOAD,2024-06-17 20:14:27,15.08838869,0.0001423,53.2174,206.611,98.9764,261.1389,-1.7699e-06,-3.16e-06,0.0,0 STARLINK-3854,1 52648U 22052BC  24169.84336874 -.00000316  00000-0 -17699-5 0  9990,2 52648  53.2174 206.6110 0001423  98.9764 261.1389 15.08838869116046,6917.884,95.438,540.733,538.764,0.0
52648.0,STARLINK-3854,PAYLOAD,2024-06-18 08:57:32,15.08829219,0.0001288,53.2172,204.2335,93.942,266.172,2.1073e-07,-2.84e-06,0.0,0 STARLINK-3854,1 52648U 22052BC  24170.37329595 -.00000284  00000-0  21073-6 0  9997,2 52648  53.2172 204.2335 0001288  93.9420 266.1720 15.08829219116504,6917.913,95.438,540.669,538.887,0.0
52648.0,STARLINK-3854,PAYLOAD,2024-06-19 08:48:19,15.0883343,0.000132,53.2169,199.774,92.7302,267.3841,9.7903e-05,1.27e-05,0.0,0 STARLINK-3854,1 52648U 22052BC  24171.36689553  .00001270  00000-0  97903-4 0  9998,2 52648  53.2169 199.7740 0001320  92.7302 267.3841 15.08833430116654,6917.9,95.438,540.679,538.852,0.0
52648.0,STARLINK-3854,PAYLOAD,2024-06-20 08:39:06,15.08839548,0.0001154,53.2158,195.3131,89.8438,270.2686,0.00018293,2.625e-05,0.0,0 STARLINK-3854,1 52648U 22052BC  24172.36049213  .00002625  00000-0  18293-3 0  9991,2 52648  53.2158 195.3131 0001154  89.8438 270.2686 15.08839548116421,6917.882,95.438,540.545,538.948,0.0
52648.0,STARLINK-3854,PAYLOAD,2024-06-20 18:11:25,15.08844574,0.0001167,53.2159,193.5292,89.9149,270.1977,0.00017698,2.53e-05,0.0,0 STARLINK-3854,1 52648U 22052BC  24172.75792946  .00002530  00000-0  17698-3 0  9995,2 52648  53.2159 193.5292 0001167  89.9149 270.1977 15.08844574116869,6917.866,95.437,540.539,538.924,0.0
52648.0,STARLINK-3854,PAYLOAD,2024-06-21 10:05:17,15.08838794,0.0001301,53.2169,190.5571,94.2826,265.8315,6.7859e-05,7.92e-06,0.0,0 STARLINK-3854,1 52648U 22052BC  24173.42033628  .00000792  00000-0  67859-4 0  9998,2 52648  53.2169 190.5571 0001301  94.2826 265.8315 15.08838794116963,6917.884,95.438,540.649,538.849,0.0
52648.0,STARLINK-3854,PAYLOAD,2024-06-22 09:56:03,15.08841339,0.0001291,53.2168,186.0968,96.8246,263.2893,1.6165e-06,-2.62e-06,0.0,0 STARLINK-3854,1 52648U 22052BC  24174.41393492 -.00000262  00000-0  16165-5 0  9994,2 52648  53.2168 186.0968 0001291  96.8246 263.2893 15.08841339116731,6917.876,95.437,540.634,538.848,0.0
52648.0,STARLINK-3854,PAYLOAD,2024-06-23 05:00:41,15.08837782,0.0001234,53.216,182.5253,82.0829,278.0303,6.1086e-05,6.84e-06,0.0,0 STARLINK-3854,1 52648U 22052BC  24175.20881556  .00000684  00000-0  61086-4 0  9993,2 52648  53.2160 182.5253 0001234  82.0829 278.0303 15.08837782117235,6917.887,95.438,540.606,538.899,0.0
52648.0,STARLINK-3854,PAYLOAD,2024-06-23 09:46:51,15.08838246,0.000123,53.216,181.6325,82.2477,277.8655,5.2867e-05,5.54e-06,0.0,0 STARLINK-3854,1 52648U 22052BC  24175.40753563  .00000554  00000-0  52867-4 0  9994,2 52648  53.2160 181.6325 0001230  82.2477 277.8655 15.08838246116885,6917.886,95.438,540.602,538.9,0.0
52648.0,STARLINK-3854,PAYLOAD,2024-06-24 04:51:29,15.08825009,0.0001277,53.2159,178.0629,83.727,276.3867,-3.9502e-05,-9.16e-06,0.0,0 STARLINK-3854,1 52648U 22052BC  24176.20243055 -.00000916  00000-0 -39502-4 0  9998,2 52648  53.2159 178.0629 0001277  83.7270 276.3867 15.08825009117386,6917.926,95.439,540.675,538.908,0.0
52648.0,STARLINK-3854,PAYLOAD,2024-06-24 06:26:53,15.08824139,0.0001263,53.216,177.7657,84.7675,275.3461,-4.9237e-05,-1.071e-05,0.0,0 STARLINK-3854,1 52648U 22052BC  24176.26867176 -.00001071  00000-0 -49237-4 0  9999,2 52648  53.2160 177.7657 0001263  84.7675 275.3461 15.08824139117012,6917.929,95.439,540.668,538.92,0.0
52648.0,STARLINK-3854,PAYLOAD,2024-06-25 04:42:17,15.08829995,0.0001298,53.2164,173.6014,93.1182,266.9959,3.319e-05,2.4e-06,0.0,0 STARLINK-3854,1 52648U 22052BC  24177.19603156  .00000240  00000-0  33190-4 0  9994,2 52648  53.2164 173.6014 0001298  93.1182 266.9959 15.08829995117533,6917.911,95.438,540.674,538.878,0.0
52648.0,STARLINK-3854,PAYLOAD,2024-06-26 04:33:03,15.08842363,0.0001165,53.2153,169.1412,94.5411,265.5714,0.00022893,3.358e-05,0.0,0 STARLINK-3854,1 52648U 22052BC  24178.18962130  .00003358  00000-0  22893-3 0  9994,2 52648  53.2153 169.1412 0001165  94.5411 265.5714 15.08842363117680,6917.873,95.437,540.544,538.932,0.0
52648.0,STARLINK-3854,PAYLOAD,2024-06-27 10:45:22,15.0885272,0.0001196,53.2156,163.4943,88.1461,271.9668,8.4483e-05,1.057e-05,0.0,0 STARLINK-3854,1 52648U 22052BC  24179.44817696  .00001057  00000-0  84483-4 0  9998,2 52648  53.2156 163.4943 0001196  88.1461 271.9668 15.08852720117875,6917.842,95.437,540.534,538.879,0.0
